[Satellite]
VERSION=1.1
NAME=RESURS P2
NICKNAME=RESURS P2
TLE1=1 40360U 14087A   18021.23937670  .00000573  00000-0  20722-4 0  9994
TLE2=2 40360  97.2727 116.1176 0011621  89.0472 298.4918 15.32386825171770
